{
  "type": "FeatureCollection",
  "features": [
    {
      "type": "Feature",
      "properties": {
        "norad_id": 30199,
        "name": "FENGYUN 1C DEB",
        "group": "fengyun-1c-debris",
        "lat": -31.176376393355376,
        "lon": 5.9781146974539885,
        "alt_km": 714.723192812944,
        "timestamp": "2025-12-02T21:34:01.545756+00:00",
        "meta_object_name": "FENGYUN 1C DEB",
        "meta_object_id": "1999-025VG",
        "meta_epoch": "2025-12-02T08:25:26.393088",
        "meta_mean_motion": 14.38411056,
        "meta_eccentricity": 0.0078172,
        "meta_inclination": 98.3862,
        "meta_ra_of_asc_node": 0.3224,
        "meta_arg_of_pericenter": 340.1263,
        "meta_mean_anomaly": 34.4423,
        "meta_ephemeris_type": 0,
        "meta_classification_type": "U",
        "meta_norad_cat_id": 30199,
        "meta_element_set_no": 999,
        "meta_rev_at_epoch": 98261,
        "meta_bstar": 0.0012167,
        "meta_mean_motion_dot": 3.802e-05,
        "meta_mean_motion_ddot": 0,
        "tle_line1": "1 30199U 99025VG  25336.35099992  .00003802  00000+0  12167-2 0  9993",
        "tle_line2": "2 30199  98.3862   0.3224 0078172 340.1263  34.4423 14.38411056982614"
      },
      "geometry": {
        "type": "Point",
        "coordinates": [
          5.9781146974539885,
          -31.176376393355376
        ]
      }
    },
    {
      "type": "Feature",
      "properties": {
        "norad_id": 30200,
        "name": "FENGYUN 1C DEB",
        "group": "fengyun-1c-debris",
        "lat": 24.613719409782473,
        "lon": -4.463858840994531,
        "alt_km": 722.7023280166441,
        "timestamp": "2025-12-02T21:34:01.545765+00:00",
        "meta_object_name": "FENGYUN 1C DEB",
        "meta_object_id": "1999-025VH",
        "meta_epoch": "2025-12-02T12:24:32.038272",
        "meta_mean_motion": 14.22264109,
        "meta_eccentricity": 0.0147402,
        "meta_inclination": 99.1134,
        "meta_ra_of_asc_node": 170.9246,
        "meta_arg_of_pericenter": 128.3328,
        "meta_mean_anomaly": 233.1204,
        "meta_ephemeris_type": 0,
        "meta_classification_type": "U",
        "meta_norad_cat_id": 30200,
        "meta_element_set_no": 999,
        "meta_rev_at_epoch": 97837,
        "meta_bstar": 0.00020513,
        "meta_mean_motion_dot": 4.62e-06,
        "meta_mean_motion_ddot": 0,
        "tle_line1": "1 30200U 99025VH  25336.51703748  .00000462  00000+0  20513-3 0  9999",
        "tle_line2": "2 30200  99.1134 170.9246 0147402 128.3328 233.1204 14.22264109978378"
      },
      "geometry": {
        "type": "Point",
        "coordinates": [
          -4.463858840994531,
          24.613719409782473
        ]
      }
    },
    {
      "type": "Feature",
      "properties": {
        "norad_id": 30201,
        "name": "FENGYUN 1C DEB",
        "group": "fengyun-1c-debris",
        "lat": 40.76174764593083,
        "lon": 102.24341988552445,
        "alt_km": 801.8683681657712,
        "timestamp": "2025-12-02T21:34:01.545775+00:00",
        "meta_object_name": "FENGYUN 1C DEB",
        "meta_object_id": "1999-025VJ",
        "meta_epoch": "2025-12-02T07:52:22.562688",
        "meta_mean_motion": 14.22907332,
        "meta_eccentricity": 0.0028915,
        "meta_inclination": 99.4006,
        "meta_ra_of_asc_node": 109.8451,
        "meta_arg_of_pericenter": 342.8974,
        "meta_mean_anomaly": 17.1225,
        "meta_ephemeris_type": 0,
        "meta_classification_type": "U",
        "meta_norad_cat_id": 30201,
        "meta_element_set_no": 999,
        "meta_rev_at_epoch": 97679,
        "meta_bstar": 0.00057625,
        "meta_mean_motion_dot": 1.251e-05,
        "meta_mean_motion_ddot": 0,
        "tle_line1": "1 30201U 99025VJ  25336.32803892  .00001251  00000+0  57625-3 0  9991",
        "tle_line2": "2 30201  99.4006 109.8451 0028915 342.8974  17.1225 14.22907332976795"
      },
      "geometry": {
        "type": "Point",
        "coordinates": [
          102.24341988552445,
          40.76174764593083
        ]
      }
    },
    {
      "type": "Feature",
      "properties": {
        "norad_id": 30202,
        "name": "FENGYUN 1C DEB",
        "group": "fengyun-1c-debris",
        "lat": 62.779435391468105,
        "lon": 56.70706510429732,
        "alt_km": 687.2483231707729,
        "timestamp": "2025-12-02T21:34:01.545785+00:00",
        "meta_object_name": "FENGYUN 1C DEB",
        "meta_object_id": "1999-025VK",
        "meta_epoch": "2025-12-02T06:23:24.388800",
        "meta_mean_motion": 14.52050153,
        "meta_eccentricity": 0.0039732,
        "meta_inclination": 98.6411,
        "meta_ra_of_asc_node": 73.2522,
        "meta_arg_of_pericenter": 91.3212,
        "meta_mean_anomaly": 269.2535,
        "meta_ephemeris_type": 0,
        "meta_classification_type": "U",
        "meta_norad_cat_id": 30202,
        "meta_element_set_no": 999,
        "meta_rev_at_epoch": 98137,
        "meta_bstar": 0.0027811,
        "meta_mean_motion_dot": 0.00011331,
        "meta_mean_motion_ddot": 0,
        "tle_line1": "1 30202U 99025VK  25336.26625450  .00011331  00000+0  27811-2 0  9990",
        "tle_line2": "2 30202  98.6411  73.2522 0039732  91.3212 269.2535 14.52050153981377"
      },
      "geometry": {
        "type": "Point",
        "coordinates": [
          56.70706510429732,
          62.779435391468105
        ]
      }
    },
    {
      "type": "Feature",
      "properties": {
        "norad_id": 30205,
        "name": "FENGYUN 1C DEB",
        "group": "fengyun-1c-debris",
        "lat": -48.141112544055154,
        "lon": -101.60182797461688,
        "alt_km": 860.6010503101907,
        "timestamp": "2025-12-02T21:34:01.545795+00:00",
        "meta_object_name": "FENGYUN 1C DEB",
        "meta_object_id": "1999-025VN",
        "meta_epoch": "2025-12-02T06:53:49.173216",
        "meta_mean_motion": 13.88026061,
        "meta_eccentricity": 0.0120617,
        "meta_inclination": 98.9968,
        "meta_ra_of_asc_node": 87.9937,
        "meta_arg_of_pericenter": 208.1071,
        "meta_mean_anomaly": 207.515,
        "meta_ephemeris_type": 0,
        "meta_classification_type": "U",
        "meta_norad_cat_id": 30205,
        "meta_element_set_no": 999,
        "meta_rev_at_epoch": 95493,
        "meta_bstar": 0.00047588,
        "meta_mean_motion_dot": 5.58e-06,
        "meta_mean_motion_ddot": 0,
        "tle_line1": "1 30205U 99025VN  25336.28737469  .00000558  00000+0  47588-3 0  9992",
        "tle_line2": "2 30205  98.9968  87.9937 0120617 208.1071 207.5150 13.88026061954935"
      },
      "geometry": {
        "type": "Point",
        "coordinates": [
          -101.60182797461688,
          -48.141112544055154
        ]
      }
    },
    {
      "type": "Feature",
      "properties": {
        "norad_id": 30206,
        "name": "FENGYUN 1C DEB",
        "group": "fengyun-1c-debris",
        "lat": 21.697036301438555,
        "lon": 159.7006504374576,
        "alt_km": 730.0538396843285,
        "timestamp": "2025-12-02T21:34:01.545806+00:00",
        "meta_object_name": "FENGYUN 1C DEB",
        "meta_object_id": "1999-025VP",
        "meta_epoch": "2025-12-02T10:54:44.093664",
        "meta_mean_motion": 14.49088857,
        "meta_eccentricity": 0.0146563,
        "meta_inclination": 98.2315,
        "meta_ra_of_asc_node": 335.9655,
        "meta_arg_of_pericenter": 67.569,
        "meta_mean_anomaly": 294.0954,
        "meta_ephemeris_type": 0,
        "meta_classification_type": "U",
        "meta_norad_cat_id": 30206,
        "meta_element_set_no": 999,
        "meta_rev_at_epoch": 99252,
        "meta_bstar": 0.00052367,
        "meta_mean_motion_dot": 2.233e-05,
        "meta_mean_motion_ddot": 0,
        "tle_line1": "1 30206U 99025VP  25336.45467701  .00002233  00000+0  52367-3 0  9994",
        "tle_line2": "2 30206  98.2315 335.9655 0146563  67.5690 294.0954 14.49088857992529"
      },
      "geometry": {
        "type": "Point",
        "coordinates": [
          159.7006504374576,
          21.697036301438555
        ]
      }
    },
    {
      "type": "Feature",
      "properties": {
        "norad_id": 30207,
        "name": "FENGYUN 1C DEB",
        "group": "fengyun-1c-debris",
        "lat": 75.83510895090862,
        "lon": 51.81266002606057,
        "alt_km": 975.6017645842194,
        "timestamp": "2025-12-02T21:34:01.545816+00:00",
        "meta_object_name": "FENGYUN 1C DEB",
        "meta_object_id": "1999-025VQ",
        "meta_epoch": "2025-12-02T07:33:44.368704",
        "meta_mean_motion": 13.79122812,
        "meta_eccentricity": 0.026021,
        "meta_inclination": 98.574,
        "meta_ra_of_asc_node": 87.9927,
        "meta_arg_of_pericenter": 176.5123,
        "meta_mean_anomaly": 249.597,
        "meta_ephemeris_type": 0,
        "meta_classification_type": "U",
        "meta_norad_cat_id": 30207,
        "meta_element_set_no": 999,
        "meta_rev_at_epoch": 94919,
        "meta_bstar": 0.00041607,
        "meta_mean_motion_dot": 5.11e-06,
        "meta_mean_motion_ddot": 0,
        "tle_line1": "1 30207U 99025VQ  25336.31509686  .00000511  00000+0  41607-3 0  9991",
        "tle_line2": "2 30207  98.5740  87.9927 0260210 176.5123 249.5970 13.79122812949199"
      },
      "geometry": {
        "type": "Point",
        "coordinates": [
          51.81266002606057,
          75.83510895090862
        ]
      }
    }
  ]
}